[{"OBJECT_NAME":"RANGE-A","OBJECT_ID":"2018-099R","EPOCH":"2026-03-09T16:56:29.908608","MEAN_MOTION":15.1245864,"ECCENTRICITY":0.00096737,"INCLINATION":97.4107,"RA_OF_ASC_NODE":114.1927,"ARG_OF_PERICENTER":340.4473,"MEAN_ANOMALY":19.6386,"EPHEMERIS_TYPE":0,"CLASSIFICATION_TYPE":"U","NORAD_CAT_ID":43773,"ELEMENT_SET_NO":999,"REV_AT_EPOCH":39745,"BSTAR":0.00032165687,"MEAN_MOTION_DOT":5.536e-5,"MEAN_MOTION_DDOT":0},{"OBJECT_NAME":"STARLINK-4717","OBJECT_ID":"2022-107F","EPOCH":"2026-03-09T17:00:34.692768","MEAN_MOTION":15.08835865,"ECCENTRICITY":0.00013415,"INCLINATION":53.2162,"RA_OF_ASC_NODE":244.2516,"ARG_OF_PERICENTER":91.245,"MEAN_ANOMALY":268.8696,"EPHEMERIS_TYPE":0,"CLASSIFICATION_TYPE":"U","NORAD_CAT_ID":53705,"ELEMENT_SET_NO":999,"REV_AT_EPOCH":19485,"BSTAR":3.56558e-6,"MEAN_MOTION_DOT":-2.31e-6,"MEAN_MOTION_DDOT":0}]
