RANGE-A                 
1 43773U 18099R   26068.70590171  .00005536  00000+0  32166-3 0  9992
2 43773  97.4107 114.1927 0009674 340.4473  19.6386 15.12458640397457
STARLINK-4717           
1 53705U 22107F   26068.70873486 -.00000231  00000+0  35656-5 0  9993
2 53705  53.2162 244.2516 0001342  91.2450 268.8696 15.08835865194857
